{"type": "FeatureCollection", "features": [ {"type": "Feature", "properties": {"norad_id": 66897, "name": "STARLINK-36079", "group": "last-30-days", "lat": 38.02437450228348, "lon": -171.51300668281866, "alt_km": 330.46802817883145, "timestamp": "2025-12-18T13:51:48.381111+00:00", "meta": {"OBJECT_NAME": "STARLINK-36079", "OBJECT_ID": "2025-283V", "EPOCH": "2025-12-18T06:00:02.999808", "MEAN_MOTION": 15.79216008, "ECCENTRICITY": 8.554e-05, "INCLINATION": 53.1575, "RA_OF_ASC_NODE": 46.0206, "ARG_OF_PERICENTER": 81.8165, "MEAN_ANOMALY": 344.8437, "EPHEMERIS_TYPE": 0, "CLASSIFICATION_TYPE": "U", "NORAD_CAT_ID": 66897, "ELEMENT_SET_NO": 999, "REV_AT_EPOCH": 331, "BSTAR": -0.0097194886, "MEAN_MOTION_DOT": -0.01558963, "MEAN_MOTION_DDOT": 0}, "tle": {"line1": "1 66897U 25283V   25352.25003472 -.01558963  00000+0 -97195-2 0  9997", "line2": "2 66897  53.1575  46.0206 0000855  81.8165 344.8437 15.79216008  3318"}}, "geometry": {"type": "Point", "coordinates": [-171.51300668281866, 38.02437450228348]}}, {"type": "Feature", "properties": {"norad_id": 66898, "name": "STARLINK-36065", "group": "last-30-days", "lat": 36.45408722128858, "lon": -169.2572295284059, "alt_km": 331.0858532257944, "timestamp": "2025-12-18T13:51:48.381122+00:00", "meta": {"OBJECT_NAME": "STARLINK-36065", "OBJECT_ID": "2025-283W", "EPOCH": "2025-12-18T06:00:02.999808", "MEAN_MOTION": 15.79146953, "ECCENTRICITY": 8.952e-05, "INCLINATION": 53.1572, "RA_OF_ASC_NODE": 46.0147, "ARG_OF_PERICENTER": 74.0099, "MEAN_ANOMALY": 355.1341, "EPHEMERIS_TYPE": 0, "CLASSIFICATION_TYPE": "U", "NORAD_CAT_ID": 66898, "ELEMENT_SET_NO": 999, "REV_AT_EPOCH": 331, "BSTAR": -0.010017808, "MEAN_MOTION_DOT": -0.01596213, "MEAN_MOTION_DDOT": 0}, "tle": {"line1": "1 66898U 25283W   25352.25003472 -.01596213  00000+0 -10018-1 0  9996", "line2": "2 66898  53.1572  46.0147 0000895  74.0099 355.1341 15.79146953  3314"}}, "geometry": {"type": "Point", "coordinates": [-169.2572295284059, 36.45408722128858]}}, {"type": "Feature", "properties": {"norad_id": 66899, "name": "STARLINK-36064", "group": "last-30-days", "lat": 34.900410434090155, "lon": -167.16614893330495, "alt_km": 331.48565174502164, "timestamp": "2025-12-18T13:51:48.381132+00:00", "meta": {"OBJECT_NAME": "STARLINK-36064", "OBJECT_ID": "2025-283X", "EPOCH": "2025-12-18T06:00:02.999808", "MEAN_MOTION": 15.79078086, "ECCENTRICITY": 9.175e-05, "INCLINATION": 53.1572, "RA_OF_ASC_NODE": 46.0098, "ARG_OF_PERICENTER": 84.3992, "MEAN_ANOMALY": 347.1399, "EPHEMERIS_TYPE": 0, "CLASSIFICATION_TYPE": "U", "NORAD_CAT_ID": 66899, "ELEMENT_SET_NO": 999, "REV_AT_EPOCH": 325, "BSTAR": -0.010215277, "MEAN_MOTION_DOT": -0.01619078, "MEAN_MOTION_DDOT": 0}, "tle": {"line1": "1 66899U 25283X   25352.25003472 -.01619078  00000+0 -10215-1 0  9991", "line2": "2 66899  53.1572  46.0098 0000917  84.3992 347.1399 15.79078086  3259"}}, "geometry": {"type": "Point", "coordinates": [-167.16614893330495, 34.900410434090155]}}, {"type": "Feature", "properties": {"norad_id": 66900, "name": "STARLINK-36074", "group": "last-30-days", "lat": 33.28338109186694, "lon": -165.12257182594934, "alt_km": 332.04113164070895, "timestamp": "2025-12-18T13:51:48.381143+00:00", "meta": {"OBJECT_NAME": "STARLINK-36074", "OBJECT_ID": "2025-283Y", "EPOCH": "2025-12-18T06:00:02.999808", "MEAN_MOTION": 15.78983619, "ECCENTRICITY": 0.00010933, "INCLINATION": 53.1544, "RA_OF_ASC_NODE": 46.004, "ARG_OF_PERICENTER": 73.472, "MEAN_ANOMALY": 0.5237, "EPHEMERIS_TYPE": 0, "CLASSIFICATION_TYPE": "U", "NORAD_CAT_ID": 66900, "ELEMENT_SET_NO": 999, "REV_AT_EPOCH": 331, "BSTAR": -0.01035529, "MEAN_MOTION_DOT": -0.01632296, "MEAN_MOTION_DDOT": 0}, "tle": {"line1": "1 66900U 25283Y   25352.25003472 -.01632296  00000+0 -10355-1 0  9996", "line2": "2 66900  53.1544  46.0040 0001093  73.4720   0.5237 15.78983619  3316"}}, "geometry": {"type": "Point", "coordinates": [-165.12257182594934, 33.28338109186694]}}, {"type": "Feature", "properties": {"norad_id": 66901, "name": "STARLINK-36043", "group": "last-30-days", "lat": 31.733567092210773, "lon": -163.26598880362752, "alt_km": 332.51084802517835, "timestamp": "2025-12-18T13:51:48.381153+00:00", "meta": {"OBJECT_NAME": "STARLINK-36043", "OBJECT_ID": "2025-283Z", "EPOCH": "2025-12-18T06:00:02.999808", "MEAN_MOTION": 15.78925342, "ECCENTRICITY": 8.637e-05, "INCLINATION": 53.1546, "RA_OF_ASC_NODE": 45.9993, "ARG_OF_PERICENTER": 89.1921, "MEAN_ANOMALY": 347.0843, "EPHEMERIS_TYPE": 0, "CLASSIFICATION_TYPE": "U", "NORAD_CAT_ID": 66901, "ELEMENT_SET_NO": 999, "REV_AT_EPOCH": 331, "BSTAR": -0.01047442, "MEAN_MOTION_DOT": -0.01678003, "MEAN_MOTION_DDOT": 0}, "tle": {"line1": "1 66901U 25283Z   25352.25003472 -.01678003  00000+0 -10474-1 0  9995", "line2": "2 66901  53.1546  45.9993 0000863  89.1921 347.0843 15.78925342  3316"}}, "geometry": {"type": "Point", "coordinates": [-163.26598880362752, 31.733567092210773]}}, {"type": "Feature", "properties": {"norad_id": 66902, "name": "STARLINK-35983", "group": "last-30-days", "lat": 30.028776694328812, "lon": -161.3285908656921, "alt_km": 333.1724915823861, "timestamp": "2025-12-18T13:51:48.381164+00:00", "meta": {"OBJECT_NAME": "STARLINK-35983", "OBJECT_ID": "2025-283AA", "EPOCH": "2025-12-18T06:00:02.999808", "MEAN_MOTION": 15.78820059, "ECCENTRICITY": 9.163e-05, "INCLINATION": 53.1544, "RA_OF_ASC_NODE": 45.9942, "ARG_OF_PERICENTER": 84.3957, "MEAN_ANOMALY": 354.392, "EPHEMERIS_TYPE": 0, "CLASSIFICATION_TYPE": "U", "NORAD_CAT_ID": 66902, "ELEMENT_SET_NO": 999, "REV_AT_EPOCH": 331, "BSTAR": -0.0106284, "MEAN_MOTION_DOT": -0.01692643, "MEAN_MOTION_DDOT": 0}, "tle": {"line1": "1 66902U 25283AA  25352.25003472 -.01692643  00000+0 -10628-1 0  9993", "line2": "2 66902  53.1544  45.9942 0000916  84.3957 354.3920 15.78820059  3310"}}, "geometry": {"type": "Point", "coordinates": [-161.3285908656921, 30.028776694328812]}}, {"type": "Feature", "properties": {"norad_id": 66903, "name": "STARLINK-36077", "group": "last-30-days", "lat": 28.4543962878689, "lon": -159.62358130142022, "alt_km": 333.6402506216227, "timestamp": "2025-12-18T13:51:48.381175+00:00", "meta": {"OBJECT_NAME": "STARLINK-36077", "OBJECT_ID": "2025-283AB", "EPOCH": "2025-12-18T06:00:02.999808", "MEAN_MOTION": 15.7875699, "ECCENTRICITY": 0.00010222, "INCLINATION": 53.1549, "RA_OF_ASC_NODE": 45.9897, "ARG_OF_PERICENTER": 71.8532, "MEAN_ANOMALY": 9.1745, "EPHEMERIS_TYPE": 0, "CLASSIFICATION_TYPE": "U", "NORAD_CAT_ID": 66903, "ELEMENT_SET_NO": 999, "REV_AT_EPOCH": 331, "BSTAR": -0.01066707, "MEAN_MOTION_DOT": -0.01693843, "MEAN_MOTION_DDOT": 0}, "tle": {"line1": "1 66903U 25283AB  25352.25003472 -.01693843  00000+0 -10667-1 0  9990", "line2": "2 66903  53.1549  45.9897 0001022  71.8532   9.1745 15.78756990  3316"}}, "geometry": {"type": "Point", "coordinates": [-159.62358130142022, 28.4543962878689]}}, {"type": "Feature", "properties": {"norad_id": 66904, "name": "STARLINK-36059", "group": "last-30-days", "lat": 26.83023047602137, "lon": -157.93808920561685, "alt_km": 334.1357448308654, "timestamp": "2025-12-18T13:51:48.381186+00:00", "meta": {"OBJECT_NAME": "STARLINK-36059", "OBJECT_ID": "2025-283AC", "EPOCH": "2025-12-18T06:00:02.999808", "MEAN_MOTION": 15.78685696, "ECCENTRICITY": 9.577e-05, "INCLINATION": 53.1571, "RA_OF_ASC_NODE": 45.9851, "ARG_OF_PERICENTER": 83.4305, "MEAN_ANOMALY": 359.8905, "EPHEMERIS_TYPE": 0, "CLASSIFICATION_TYPE": "U", "NORAD_CAT_ID": 66904, "ELEMENT_SET_NO": 999, "REV_AT_EPOCH": 331, "BSTAR": -0.010733812, "MEAN_MOTION_DOT": -0.01698271, "MEAN_MOTION_DDOT": 0}, "tle": {"line1": "1 66904U 25283AC  25352.25003472 -.01698271  00000+0 -10734-1 0  9996", "line2": "2 66904  53.1571  45.9851 0000957  83.4305 359.8905 15.78685696  3312"}}, "geometry": {"type": "Point", "coordinates": [-157.93808920561685, 26.83023047602137]}}, {"type": "Feature", "properties": {"norad_id": 66905, "name": "STARLINK-36075", "group": "last-30-days", "lat": 25.274429302758715, "lon": -156.38824547316037, "alt_km": 334.56740404117045, "timestamp": "2025-12-18T13:51:48.381200+00:00", "meta": {"OBJECT_NAME": "STARLINK-36075", "OBJECT_ID": "2025-283AD", "EPOCH": "2025-12-18T06:00:02.999808", "MEAN_MOTION": 15.78643762, "ECCENTRICITY": 0.00010041, "INCLINATION": 53.1573, "RA_OF_ASC_NODE": 45.9809, "ARG_OF_PERICENTER": 70.2508, "MEAN_ANOMALY": 15.21, "EPHEMERIS_TYPE": 0, "CLASSIFICATION_TYPE": "U", "NORAD_CAT_ID": 66905, "ELEMENT_SET_NO": 999, "REV_AT_EPOCH": 331, "BSTAR": -0.010795367, "MEAN_MOTION_DOT": -0.0170403, "MEAN_MOTION_DDOT": 0}, "tle": {"line1": "1 66905U 25283AD  25352.25003472 -.01704030  00000+0 -10795-1 0  9995", "line2": "2 66905  53.1573  45.9809 0001004  70.2508  15.2100 15.78643762  3319"}}, "geometry": {"type": "Point", "coordinates": [-156.38824547316037, 25.274429302758715]}}, {"type": "Feature", "properties": {"norad_id": 66906, "name": "1998-067XS", "group": "last-30-days", "lat": -51.6013964771578, "lon": 24.956367305184624, "alt_km": 417.1780112098186, "timestamp": "2025-12-18T13:51:48.381211+00:00", "meta": {"OBJECT_NAME": "1998-067XS", "OBJECT_ID": "1998-067XS", "EPOCH": "2025-12-17T16:35:43.301760", "MEAN_MOTION": 15.50834133, "ECCENTRICITY": 0.0003138, "INCLINATION": 51.6309, "RA_OF_ASC_NODE": 117.8563, "ARG_OF_PERICENTER": 226.0893, "MEAN_ANOMALY": 133.9837, "EPHEMERIS_TYPE": 0, "CLASSIFICATION_TYPE": "U", "NORAD_CAT_ID": 66906, "ELEMENT_SET_NO": 999, "REV_AT_EPOCH": 238, "BSTAR": 0.00042869394, "MEAN_MOTION_DOT": 0.00024822, "MEAN_MOTION_DDOT": 0}, "tle": {"line1": "1 66906U 98067XS  25351.69147340  .00024822  00000+0  42869-3 0  9996", "line2": "2 66906  51.6309 117.8563 0003138 226.0893 133.9837 15.50834133  2389"}}, "geometry": {"type": "Point", "coordinates": [24.956367305184624, -51.6013964771578]}}]}